OBJECT_NAME,OBJECT_ID,EPOCH,MEAN_MOTION,ECCENTRICITY,INCLINATION,RA_OF_ASC_NODE,ARG_OF_PERICENTER,MEAN_ANOMALY,EPHEMERIS_TYPE,CLASSIFICATION_TYPE,NORAD_CAT_ID,ELEMENT_SET_NO,REV_AT_EPOCH,BSTAR,MEAN_MOTION_DOT,MEAN_MOTION_DDOT
STARLINK-37237,2026-114D,2026-06-16T20:01:35.425920,15.78137650,.0001562,53.1575,204.2106,73.0103,287.1089,0,U,69185,999,471,.1462E-2,.262075E-2,0
STARLINK-37365,2026-114E,2026-06-16T13:57:14.463360,15.78110062,.0000868,53.1572,205.4770,114.5443,245.5669,0,U,69186,999,467,.82573E-3,.145527E-2,0
STARLINK-37209,2026-114F,2026-06-16T20:00:55.535040,15.78119089,.0001087,53.1574,204.2076,79.9466,280.1678,0,U,69187,999,471,.11066E-2,.196509E-2,0
STARLINK-37359,2026-114G,2026-06-16T13:55:29.728416,15.78069278,.0000974,53.1573,205.4690,84.8825,275.2308,0,U,69188,999,467,.41606E-3,.7223E-3,0
STARLINK-37440,2026-114H,2026-06-16T20:00:01.999008,15.74528784,.0001026,53.1594,203.6550,79.7412,185.8693,0,U,69189,999,476,-.15827E-1,-.2069401E-1,0
STARLINK-37282,2026-114J,2026-06-16T20:00:01.999008,15.78052188,.0001028,53.1575,204.1295,100.6597,295.1170,0,U,69190,999,475,-.2157E-3,-.37947E-3,0
STARLINK-37422,2026-114K,2026-06-15T10:03:30.055104,15.80999095,.00012671,53.1579,211.0244,164.9839,195.1222,0,U,69191,999,449,.13541344E-2,.276916E-2,0
STARLINK-37424,2026-114L,2026-06-16T19:51:09.514080,15.78122573,.0001599,53.1571,204.1622,80.1716,279.9486,0,U,69192,999,471,.13026E-2,.232464E-2,0
STARLINK-36666,2026-114M,2026-06-16T16:24:31.730112,15.80930586,.0001084,53.1571,204.6827,106.0801,254.0341,0,U,69193,999,469,.48515E-3,.96385E-3,0
STARLINK-37355,2026-114N,2026-06-16T16:23:27.333600,15.80911688,.0001247,53.1569,204.6772,74.2502,285.8658,0,U,69194,999,469,.56194E-3,.111857E-2,0
STARLINK-37166,2026-114P,2026-06-16T19:23:21.843744,15.80958662,.0001049,53.1566,204.0335,97.2052,262.9090,0,U,69195,999,471,.12199E-2,.248099E-2,0
STARLINK-36933,2026-114Q,2026-06-16T19:24:25.250976,15.81013247,.0000974,53.1569,204.0388,105.7518,254.3613,0,U,69196,999,471,.10064E-2,.204014E-2,0
STARLINK-37419,2026-114R,2026-06-16T19:22:17.182848,15.80942710,.0001337,53.1564,204.0275,76.0325,284.0846,0,U,69197,999,471,.96509E-3,.19476E-2,0
STARLINK-37321,2026-114S,2026-06-16T19:21:12.261024,15.80948832,.0001233,53.1569,204.0240,85.4112,274.7051,0,U,69198,999,471,.10766E-2,.217993E-2,0
STARLINK-37406,2026-114T,2026-06-16T19:20:09.151008,15.80781331,.0002224,53.1564,204.0172,59.2395,300.8847,0,U,69199,999,471,-.10705E-4,-.2804E-4,0
STARLINK-37761,2026-114U,2026-06-16T19:19:05.189952,15.80705626,.0001567,53.1565,204.0122,23.9736,336.1359,0,U,69200,999,471,-.31686E-3,-.62313E-3,0
STARLINK-37754,2026-114V,2026-06-16T19:17:41.172000,15.80956752,.0001479,53.1564,204.0056,82.1236,277.9954,0,U,69201,999,471,.11807E-2,.23985E-2,0
STARLINK-37649,2026-114W,2026-06-16T19:16:53.046336,15.80956805,.0001349,53.1564,204.0023,79.7307,280.3868,0,U,69202,999,471,.11499E-2,.233384E-2,0
STARLINK-37604,2026-114X,2026-06-16T19:15:48.483936,15.80967167,.0001607,53.1564,203.9972,86.0072,274.1134,0,U,69203,999,471,.13612E-2,.277998E-2,0
STARLINK-37669,2026-114Y,2026-06-16T19:14:43.409184,15.80952688,.0001399,53.1564,203.9916,74.8727,285.2450,0,U,69204,999,471,.10937E-2,.221614E-2,0
STARLINK-37691,2026-114Z,2026-06-16T16:32:13.882848,15.78102376,.0001212,53.1574,204.7167,64.4056,295.7091,0,U,69205,999,469,.98529E-3,.174309E-2,0
STARLINK-37671,2026-114AA,2026-06-16T19:24:05.772096,15.78113391,.0001146,53.1578,204.0362,100.5691,259.5460,0,U,69206,999,471,.10257E-2,.181736E-2,0
STARLINK-37647,2026-114AB,2026-06-16T19:13:38.603136,15.80954825,.0001302,53.1565,203.9870,79.8714,280.2456,0,U,69207,999,471,.10908E-2,.221018E-2,0
STARLINK-37562,2026-114AC,2026-06-16T19:27:02.543904,15.78111535,.0002517,53.1576,204.0501,77.7565,282.3738,0,U,69208,999,471,.12771E-2,.227669E-2,0
STARLINK-37682,2026-114AD,2026-06-16T16:07:15.265344,15.80917363,.0001522,53.1564,204.5999,55.7767,304.3399,0,U,69209,999,469,.66869E-3,.133615E-2,0
STARLINK-37402,2026-114AE,2026-06-16T16:06:10.105920,15.80950296,.0000927,53.1560,204.5937,129.9639,230.1465,0,U,69210,999,469,.10006E-2,.202195E-2,0
STARLINK-37613,2026-115A,2026-06-16T19:26:53.274912,15.49228691,.0000731,97.2838,184.9205,87.5512,272.5823,0,U,69211,999,460,.30922E-3,.16786E-3,0
STARLINK-37713,2026-115B,2026-06-16T20:00:01.999008,15.49191755,.0001902,97.2846,185.0716,95.7401,327.7792,0,U,69212,999,463,.12917E-2,.70803E-3,0
STARLINK-37716,2026-115C,2026-06-16T20:00:01.999008,15.49147104,.0001834,97.2846,185.1267,85.5038,108.3767,0,U,69213,999,463,.88488E-3,.48262E-3,0
STARLINK-37620,2026-115D,2026-06-16T19:47:27.030624,15.49209861,.000062,97.2835,184.9005,91.7417,268.3906,0,U,69214,999,460,.54725E-3,.29807E-3,0
