STARLINK-37237          
1 69185U 26114D   26167.83443780  .00262075  00000+0  14620-2 0  9998
2 69185  53.1575 204.2106 0001562  73.0103 287.1089 15.78137650  4710
STARLINK-37365          
1 69186U 26114E   26167.58141740  .00145527  00000+0  82573-3 0  9997
2 69186  53.1572 205.4770 0000868 114.5443 245.5669 15.78110062  4679
STARLINK-37209          
1 69187U 26114F   26167.83397610  .00196509  00000+0  11066-2 0  9999
2 69187  53.1574 204.2076 0001087  79.9466 280.1678 15.78119089  4719
STARLINK-37359          
1 69188U 26114G   26167.58020519  .00072230  00000+0  41606-3 0  9991
2 69188  53.1573 205.4690 0000974  84.8825 275.2308 15.78069278  4676
STARLINK-37440          
1 69189U 26114H   26167.83335647 -.02069401  00000+0 -15827-1 0  9995
2 69189  53.1594 203.6550 0001026  79.7412 185.8693 15.74528784  4760
STARLINK-37282          
1 69190U 26114J   26167.83335647 -.00037947  00000+0 -21570-3 0  9999
2 69190  53.1575 204.1295 0001028 100.6597 295.1170 15.78052188  4751
STARLINK-37422          
1 69191U 26114K   26166.41909786  .00276916  00000+0  13541-2 0  9991
2 69191  53.1579 211.0244 0001267 164.9839 195.1222 15.80999095  4492
STARLINK-37424          
1 69192U 26114L   26167.82719345  .00232464  00000+0  13026-2 0  9996
2 69192  53.1571 204.1622 0001599  80.1716 279.9486 15.78122573  4713
STARLINK-36666          
1 69193U 26114M   26167.68370058  .00096385  00000+0  48515-3 0  9997
2 69193  53.1571 204.6827 0001084 106.0801 254.0341 15.80930586  4693
STARLINK-37355          
1 69194U 26114N   26167.68295525  .00111857  00000+0  56194-3 0  9997
2 69194  53.1569 204.6772 0001247  74.2502 285.8658 15.80911688  4690
STARLINK-37166          
1 69195U 26114P   26167.80789171  .00248099  00000+0  12199-2 0  9992
2 69195  53.1566 204.0335 0001049  97.2052 262.9090 15.80958662  4714
STARLINK-36933          
1 69196U 26114Q   26167.80862559  .00204014  00000+0  10064-2 0  9993
2 69196  53.1569 204.0388 0000974 105.7518 254.3613 15.81013247  4712
STARLINK-37419          
1 69197U 26114R   26167.80714332  .00194760  00000+0  96509-3 0  9994
2 69197  53.1564 204.0275 0001337  76.0325 284.0846 15.80942710  4716
STARLINK-37321          
1 69198U 26114S   26167.80639191  .00217993  00000+0  10766-2 0  9998
2 69198  53.1569 204.0240 0001233  85.4112 274.7051 15.80948832  4712
STARLINK-37406          
1 69199U 26114T   26167.80566147 -.00002804  00000+0 -10705-4 0  9999
2 69199  53.1564 204.0172 0002224  59.2395 300.8847 15.80781331  4718
STARLINK-37761          
1 69200U 26114U   26167.80492118 -.00062313  00000+0 -31686-3 0  9999
2 69200  53.1565 204.0122 0001567  23.9736 336.1359 15.80705626  4716
STARLINK-37754          
1 69201U 26114V   26167.80394875  .00239850  00000+0  11807-2 0  9993
2 69201  53.1564 204.0056 0001479  82.1236 277.9954 15.80956752  4717
STARLINK-37649          
1 69202U 26114W   26167.80339174  .00233384  00000+0  11499-2 0  9998
2 69202  53.1564 204.0023 0001349  79.7307 280.3868 15.80956805  4710
STARLINK-37604          
1 69203U 26114X   26167.80264449  .00277998  00000+0  13612-2 0  9999
2 69203  53.1564 203.9972 0001607  86.0072 274.1134 15.80967167  4719
STARLINK-37669          
1 69204U 26114Y   26167.80189131  .00221614  00000+0  10937-2 0  9995
2 69204  53.1564 203.9916 0001399  74.8727 285.2450 15.80952688  4714
STARLINK-37691          
1 69205U 26114Z   26167.68904957  .00174309  00000+0  98529-3 0  9995
2 69205  53.1574 204.7167 0001212  64.4056 295.7091 15.78102376  4699
STARLINK-37671          
1 69206U 26114AA  26167.80840014  .00181736  00000+0  10257-2 0  9996
2 69206  53.1578 204.0362 0001146 100.5691 259.5460 15.78113391  4717
STARLINK-37647          
1 69207U 26114AB  26167.80114124  .00221018  00000+0  10908-2 0  9994
2 69207  53.1565 203.9870 0001302  79.8714 280.2456 15.80954825  4718
STARLINK-37562          
1 69208U 26114AC  26167.81044611  .00227669  00000+0  12771-2 0  9997
2 69208  53.1576 204.0501 0002517  77.7565 282.3738 15.78111535  4710
STARLINK-37682          
1 69209U 26114AD  26167.67170446  .00133615  00000+0  66869-3 0  9993
2 69209  53.1564 204.5999 0001522  55.7767 304.3399 15.80917363  4690
STARLINK-37402          
1 69210U 26114AE  26167.67095030  .00202195  00000+0  10006-2 0  9991
2 69210  53.1560 204.5937 0000927 129.9639 230.1465 15.80950296  4692
STARLINK-37613          
1 69211U 26115A   26167.81033883  .00016786  00000+0  30922-3 0  9996
2 69211  97.2838 184.9205 0000731  87.5512 272.5823 15.49228691  4602
STARLINK-37713          
1 69212U 26115B   26167.83335647  .00070803  00000+0  12917-2 0  9995
2 69212  97.2846 185.0716 0001902  95.7401 327.7792 15.49191755  4631
STARLINK-37716          
1 69213U 26115C   26167.83335647  .00048262  00000+0  88488-3 0  9997
2 69213  97.2846 185.1267 0001834  85.5038 108.3767 15.49147104  4635
STARLINK-37620          
1 69214U 26115D   26167.82461841  .00029807  00000+0  54725-3 0  9994
2 69214  97.2835 184.9005 0000620  91.7417 268.3906 15.49209861  4601
